0 FENGYUN 1C DEB
1 31210U 99025BKQ 13280.97204488  .00000148  00000-0  11402-3 0  7103
2 31210 099.0397 294.7771 0019245 098.3260 293.0347 14.07738154333582
0 FENGYUN 1C DEB
1 31210U 99025BKQ 13283.83330096  .00000214  00000-0  15250-3 0  7116
2 31210 099.0392 297.6410 0019119 090.7769 033.0316 14.07740466333980
0 FENGYUN 1C DEB
1 31210U 99025BKQ 13286.54027067  .00000431  00000-0  28070-3 0  7124
2 31210 099.0385 300.3502 0019043 083.7173 071.0894 14.07739885334362
0 FENGYUN 1C DEB
1 31210U 99025BKQ 13289.29456084  .00000643  00000-0  40596-3 0  7137
2 31210 099.0383 303.1066 0018967 076.3036 349.1890 14.07742414334756
0 FENGYUN 1C DEB
1 31210U 99025BKQ 13291.51705282  .00000562  00000-0  35821-3 0  7148
2 31210 099.0383 305.3304 0018922 070.4572 092.1391 14.07746453335069
0 FENGYUN 1C DEB
1 31210U 99025BKQ 13293.57121190  .00000440  00000-0  28574-3 0  7159
2 31210 099.0383 307.3853 0018909 065.0107 062.0917 14.07750308335355
